STARLINK-31837          
1 61514U 24183F   26068.50029563 -.00000008  00000+0  11849-4 0  9992
2 61514  53.1605 143.3068 0001207  89.8625 270.2514 15.30184239 79623
LIZZIESAT-2 (LS-2)      
1 62383U 24247G   26068.49140277  .00009388  00000+0  34517-3 0  9997
2 62383  44.9909 117.0823 0004092 327.5136  32.5495 15.28222796 67716
